NORAD_CAT_ID,OBJECT_NAME,OBJECT_TYPE,EPOCH,MEAN_MOTION,ECCENTRICITY,INCLINATION,RA_OF_ASC_NODE,ARG_OF_PERICENTER,MEAN_ANOMALY,BSTAR,MEAN_MOTION_DOT,MEAN_MOTION_DDOT,TLE_LINE0,TLE_LINE1,TLE_LINE2,SEMIMAJOR_AXIS,PERIOD,APOGEE,PERIGEE,DECAYED
55953.0,STARLINK-5889,PAYLOAD,2023-11-27 21:26:33,14.98316509,0.0002823,70.0029,204.4256,209.4739,150.6262,-0.00014438,-1.815e-05,0.0,0 STARLINK-5889,1 55953U 23037AR  23331.89344233 -.00001815  00000-0 -14438-3 0  9990,2 55953  70.0029 204.4256 0002823 209.4739 150.6262 14.98316509 39728,6950.235,96.108,574.062,570.138,0.0
55953.0,STARLINK-5889,PAYLOAD,2023-11-28 00:38:48,14.98335168,0.0002309,70.0007,204.087,255.2493,104.841,-7.1859e-05,-9.5e-06,0.0,0 STARLINK-5889,1 55953U 23037AR  23332.02694974 -.00000950  00000-0 -71859-4 0  9996,2 55953  70.0007 204.0870 0002309 255.2493 104.8410 14.98335168 40086,6950.177,96.107,573.647,570.437,0.0
55953.0,STARLINK-5889,PAYLOAD,2023-11-28 19:52:25,14.98323946,0.000267,70.0004,202.0651,243.1535,116.9351,0.00011657,1.298e-05,0.0,0 STARLINK-5889,1 55953U 23037AR  23332.82806909  .00001298  00000-0  11657-3 0  9990,2 55953  70.0004 202.0651 0002670 243.1535 116.9351 14.98323946 39865,6950.212,96.107,573.932,570.221,0.0
55953.0,STARLINK-5889,PAYLOAD,2023-11-28 23:04:41,14.98325508,0.0002871,70.0006,201.7288,249.13,110.9552,7.4488e-05,7.96e-06,0.0,0 STARLINK-5889,1 55953U 23037AR  23332.96158955  .00000796  00000-0  74488-4 0  9990,2 55953  70.0006 201.7288 0002871 249.1300 110.9552 14.98325508 40223,6950.207,96.107,574.067,570.076,0.0
55953.0,STARLINK-5889,PAYLOAD,2023-11-30 00:42:50,14.98331386,0.0002694,70.0004,199.0351,244.3416,115.7465,1.1175e-05,4e-07,0.0,0 STARLINK-5889,1 55953U 23037AR  23334.02974819  .00000040  00000-0  11175-4 0  9990,2 55953  70.0004 199.0351 0002694 244.3416 115.7465 14.98331386 40383,6950.189,96.107,573.926,570.181,0.0
55953.0,STARLINK-5889,PAYLOAD,2023-12-01 00:44:51,14.9833052,0.0002786,69.9997,196.5103,259.4338,100.6507,-6.1904e-05,-8.32e-06,0.0,0 STARLINK-5889,1 55953U 23037AR  23335.03115106 -.00000832  00000-0 -61904-4 0  9994,2 55953  69.9997 196.5103 0002786 259.4338 100.6507 14.98330520 40536,6950.191,96.107,573.993,570.12,0.0
55953.0,STARLINK-5889,PAYLOAD,2023-12-01 19:58:27,14.98333685,0.0002588,69.9997,194.4884,271.3843,88.702,6.3999e-05,6.71e-06,0.0,0 STARLINK-5889,1 55953U 23037AR  23335.83226482  .00000671  00000-0  63999-4 0  9997,2 55953  69.9997 194.4884 0002588 271.3843  88.7020 14.98333685 40657,6950.181,96.107,573.845,570.248,0.0
55953.0,STARLINK-5889,PAYLOAD,2023-12-01 21:34:35,14.9833622,0.0002583,69.9994,194.3201,272.4797,87.6067,5.5696e-05,5.72e-06,0.0,0 STARLINK-5889,1 55953U 23037AR  23335.89902333  .00000572  00000-0  55696-4 0  9994,2 55953  69.9994 194.3201 0002583 272.4797  87.6067 14.98336220 40322,6950.174,96.107,573.834,570.243,0.0
55953.0,STARLINK-5889,PAYLOAD,2023-12-02 00:46:51,14.98340984,0.0002363,70.0003,193.9867,259.9562,100.1331,0.00011935,1.332e-05,0.0,0 STARLINK-5889,1 55953U 23037AR  23336.03253729  .00001332  00000-0  11935-3 0  9991,2 55953  70.0003 193.9867 0002363 259.9562 100.1331 14.98340984 40681,6950.159,96.106,573.666,570.382,0.0
55953.0,STARLINK-5889,PAYLOAD,2023-12-02 20:00:28,14.98326733,0.0002885,69.9992,191.9657,266.3527,93.7302,-2.3463e-05,-3.73e-06,0.0,0 STARLINK-5889,1 55953U 23037AR  23336.83366726 -.00000373  00000-0 -23463-4 0  9997,2 55953  69.9992 191.9657 0002885 266.3527  93.7302 14.98326733 40807,6950.203,96.107,574.073,570.063,0.0
55953.0,STARLINK-5889,PAYLOAD,2023-12-02 21:36:36,14.98326953,0.0002846,69.9993,191.7972,266.218,93.8653,-1.9558e-05,-3.26e-06,0.0,0 STARLINK-5889,1 55953U 23037AR  23336.90042708 -.00000326  00000-0 -19558-4 0  9994,2 55953  69.9993 191.7972 0002846 266.2180  93.8653 14.98326953 40474,6950.202,96.107,574.045,570.089,0.0
55953.0,STARLINK-5889,PAYLOAD,2023-12-03 13:37:57,14.98328918,0.0002682,69.9991,190.1142,262.2632,97.8222,-0.00013987,-1.761e-05,0.0,0 STARLINK-5889,1 55953U 23037AR  23337.56803084 -.00001761  00000-0 -13987-3 0  9992,2 55953  69.9991 190.1142 0002682 262.2632  97.8222 14.98328918 40570,6950.196,96.107,573.925,570.197,0.0
55953.0,STARLINK-5889,PAYLOAD,2023-12-03 20:02:29,14.98331015,0.0002576,69.9994,189.4413,258.6349,101.4521,-9.5098e-05,-1.227e-05,0.0,0 STARLINK-5889,1 55953U 23037AR  23337.83506788 -.00001227  00000-0 -95098-4 0  9994,2 55953  69.9994 189.4413 0002576 258.6349 101.4521 14.98331015 40959,6950.19,96.107,573.845,570.264,0.0
55953.0,STARLINK-5889,PAYLOAD,2023-12-04 00:50:53,14.98332328,0.0002578,69.9993,188.9362,260.9998,99.0869,-7.8457e-05,-1.029e-05,0.0,0 STARLINK-5889,1 55953U 23037AR  23338.03534647 -.00001029  00000-0 -78457-4 0  9992,2 55953  69.9993 188.9362 0002578 260.9998  99.0869 14.98332328 40644,6950.186,96.107,573.842,570.259,0.0
55953.0,STARLINK-5889,PAYLOAD,2023-12-05 23:18:47,14.98330313,0.0002656,69.999,184.0553,278.4242,81.6616,1.4872e-05,8.4e-07,0.0,0 STARLINK-5889,1 55953U 23037AR  23339.97138694  .00000084  00000-0  14872-4 0  9997,2 55953  69.9990 184.0553 0002656 278.4242  81.6616 14.98330313 41272,6950.192,96.107,573.903,570.211,0.0
55953.0,STARLINK-5889,PAYLOAD,2023-12-06 23:20:48,14.9832929,0.0002638,69.9994,181.5303,275.3745,84.7113,-1.3112e-05,-2.49e-06,0.0,0 STARLINK-5889,1 55953U 23037AR  23340.97278659 -.00000249  00000-0 -13112-4 0  9996,2 55953  69.9994 181.5303 0002638 275.3745  84.7113 14.98329290 41420,6950.195,96.107,573.894,570.227,0.0
55953.0,STARLINK-5889,PAYLOAD,2023-12-07 23:22:49,14.98329164,0.000309,69.9982,179.0026,269.1079,90.9726,5.7256e-06,-2.5e-07,0.0,0 STARLINK-5889,1 55953U 23037AR  23341.97418477 -.00000025  00000-0  57256-5 0  9990,2 55953  69.9982 179.0026 0003090 269.1079  90.9726 14.98329164 41570,6950.195,96.107,574.208,569.913,0.0
55953.0,STARLINK-5889,PAYLOAD,2023-12-09 23:26:51,14.98329717,0.0003071,69.9969,173.955,269.9108,90.1699,-3.3225e-06,-1.33e-06,0.0,0 STARLINK-5889,1 55953U 23037AR  23343.97698322 -.00000133  00000-0 -33225-5 0  9992,2 55953  69.9969 173.9550 0003071 269.9108  90.1699 14.98329717 41878,6950.194,96.107,574.193,569.924,0.0
55953.0,STARLINK-5889,PAYLOAD,2023-12-10 13:52:03,14.98331423,0.0002948,69.9983,172.4393,273.7655,86.3167,1.8368e-05,1.26e-06,0.0,0 STARLINK-5889,1 55953U 23037AR  23344.57782196  .00000126  00000-0  18368-4 0  9992,2 55953  69.9983 172.4393 0002948 273.7655  86.3167 14.98331423 41622,6950.188,96.107,574.102,570.005,0.0
55953.0,STARLINK-5889,PAYLOAD,2023-12-10 21:52:43,14.98332174,0.0002817,69.9984,171.5983,269.8117,90.2719,3.0428e-05,2.7e-06,0.0,0 STARLINK-5889,1 55953U 23037AR  23344.91162014  .00000270  00000-0  30428-4 0  9992,2 55953  69.9984 171.5983 0002817 269.8117  90.2719 14.98332174 41678,6950.186,96.107,574.009,570.093,0.0
55953.0,STARLINK-5889,PAYLOAD,2023-12-11 13:54:04,14.98332471,0.0002719,69.9986,169.9153,266.9426,93.1422,-1.1452e-05,-2.3e-06,0.0,0 STARLINK-5889,1 55953U 23037AR  23345.57922054 -.00000230  00000-0 -11452-4 0  9997,2 55953  69.9986 169.9153 0002719 266.9426  93.1422 14.98332471 41776,6950.185,96.107,573.94,570.16,0.0
55953.0,STARLINK-5889,PAYLOAD,2023-12-11 20:18:36,14.98332276,0.0002706,69.9986,169.2418,265.3636,94.7214,-1.5703e-05,-2.8e-06,0.0,0 STARLINK-5889,1 55953U 23037AR  23345.84626016 -.00000280  00000-0 -15703-4 0  9994,2 55953  69.9986 169.2418 0002706 265.3636  94.7214 14.98332276 42157,6950.186,96.107,573.932,570.17,0.0
55953.0,STARLINK-5889,PAYLOAD,2023-12-11 21:54:44,14.98332226,0.0002708,69.9986,169.0734,265.5775,94.5075,-1.5769e-05,-2.81e-06,0.0,0 STARLINK-5889,1 55953U 23037AR  23345.91302004 -.00000281  00000-0 -15769-4 0  9993,2 55953  69.9986 169.0734 0002708 265.5775  94.5075 14.98332226 41825,6950.186,96.107,573.933,570.169,0.0
55953.0,STARLINK-5889,PAYLOAD,2023-12-12 13:56:05,14.98329178,0.000263,69.9988,167.3906,263.3796,96.7064,-2.8091e-05,-4.28e-06,0.0,0 STARLINK-5889,1 55953U 23037AR  23346.58062135 -.00000428  00000-0 -28091-4 0  9990,2 55953  69.9988 167.3906 0002630 263.3796  96.7064 14.98329178 41927,6950.195,96.107,573.888,570.233,0.0
55953.0,STARLINK-5889,PAYLOAD,2023-12-12 20:20:37,14.98328548,0.0002657,69.9988,166.7172,264.7639,95.3217,-3.332e-05,-4.9e-06,0.0,0 STARLINK-5889,1 55953U 23037AR  23346.84766196 -.00000490  00000-0 -33320-4 0  9997,2 55953  69.9988 166.7172 0002657 264.7639  95.3217 14.98328548 42303,6950.197,96.107,573.909,570.216,0.0
55953.0,STARLINK-5889,PAYLOAD,2023-12-12 21:56:46,14.98328802,0.0002658,69.9988,166.5489,264.9557,95.1299,-3.0201e-05,-4.53e-06,0.0,0 STARLINK-5889,1 55953U 23037AR  23346.91442175 -.00000453  00000-0 -30201-4 0  9997,2 55953  69.9988 166.5489 0002658 264.9557  95.1299 14.98328802 41977,6950.197,96.107,573.909,570.214,0.0
55953.0,STARLINK-5889,PAYLOAD,2023-12-13 13:58:06,14.98330955,0.0002728,69.9986,164.8652,268.4446,91.6401,5.5985e-06,-2.6e-07,0.0,0 STARLINK-5889,1 55953U 23037AR  23347.58201888 -.00000026  00000-0  55985-5 0  9997,2 55953  69.9986 164.8652 0002728 268.4446  91.6401 14.98330955 42072,6950.19,96.107,573.951,570.159,0.0
55953.0,STARLINK-5889,PAYLOAD,2023-12-13 21:58:46,14.98331114,0.0002711,69.9987,164.0237,268.9387,91.1461,1.0217e-05,2.9e-07,0.0,0 STARLINK-5889,1 55953U 23037AR  23347.91581839  .00000029  00000-0  10217-4 0  9991,2 55953  69.9987 164.0237 0002711 268.9387  91.1461 14.98331114 42120,6950.189,96.107,573.939,570.17,0.0
55953.0,STARLINK-5889,PAYLOAD,2023-12-14 14:00:07,14.983279,0.0002701,69.9988,162.3407,270.5973,89.4877,8.2414e-06,5e-08,0.0,0 STARLINK-5889,1 55953U 23037AR  23348.58342047  .00000005  00000-0  82414-5 0  9994,2 55953  69.9988 162.3407 0002701 270.5973  89.4877 14.98327900 42220,6950.199,96.107,573.942,570.187,0.0
55953.0,STARLINK-5889,PAYLOAD,2023-12-14 22:00:47,14.98328017,0.0002708,69.9987,161.499,271.3459,88.739,7.9455e-06,2e-08,0.0,0 STARLINK-5889,1 55953U 23037AR  23348.91722069  .00000002  00000-0  79455-5 0  9995,2 55953  69.9987 161.4990 0002708 271.3459  88.7390 14.98328017 42278,6950.199,96.107,573.946,570.182,0.0
